C/2022 L1 (Catalina),e,123.4595,300.0317,59.8488,527.5695,0.0000813,0.99698376,0.0000,09/28.2389/2022,2000,g 15.8,4.0
# From MPEC 2023-T65
C/2022 L2 (ATLAS),h,03/12.2854/2024,129.3148,39.2412,199.9273,1.001503,2.692612,2000,6.5,4.0
# From MPEC 2023-HD1
P/2022 L3 (ATLAS),e,21.5431,29.8050,10.3421,6.501470,0.0594548,0.62774753,20.5728,10/11.0/2023,2000,g 12.7,4.0
# From MPEC 2022-N37
C/2022 L4 (PANSTARRS),e,141.2415,66.0598,125.3349,283.5428,0.0002064,0.98936781,0.0000,12/08.8603/2021,2000,g 14.0,4.0
# From MPEC 2023-FK0
C/2022 N1 (Attard-Maury),e,164.7378,301.8691,41.0668,37.03611,0.0043729,0.96000519,1.7314,10/11.0/2023,2000,g 16.9,4.0
# From MPEC 2023-SQ0
C/2022 N2 (PANSTARRS),h,07/31.5672/2025,5.5022,319.7398,75.3489,1.003788,3.826852,2000,9.8,4.0
# From MPEC 2023-R20
C/2022 O1 (ATLAS),h,02/15.8439/2022,71.0411,49.9172,268.9141,1.003715,7.431409,2000,6.0,4.0
# From MPEC 2023-HD1
P/2022 O2 (PANSTARRS),e,9.4244,330.4886,48.6301,6.306329,0.0622356,0.72141158,17.2358,10/11.0/2023,2000,g 16.2,4.0
# From MPEC 2023-N01
C/2022 P1 (NEOWISE),e,154.6066,205.0824,249.9450,18.46682,0.0124198,0.91361415,3.9308,10/11.0/2023,2000,g 13.0,4.0
# From MPEC 2023-G31
P/2022 P2 (ZTF),e,12.4404,291.2174,137.6400,4.487195,0.1036912,0.55814955,47.3980,10/11.0/2023,2000,g 12.5,4.0
# From MPEC 2023-HD1
C/2022 P3 (ZTF),e,59.5163,72.2253,0.1203,247.8949,0.0002525,0.98966539,0.0000,07/27.4023/2022,2000,g  9.0,4.0
# From MPEC 2023-R20
C/2022 Q2 (ATLAS),e,151.4851,352.9462,44.0718,32.80178,0.0052464,0.94987444,1.3241,10/11.0/2023,2000,g 13.0,4.0
# From MPEC 2023-T65
C/2022 QE78 (ATLAS),h,09/10.1656/2025,36.5479,119.9464,0.3487,1.003453,5.481605,2000,5.0,4.0
# From MPEC 2022-WD2
P/2022 R1 (PANSTARRS),e,7.3871,176.0967,222.1478,7.243916,0.0505527,0.50676569,0.1017,10/11.0/2023,2000,g 11.5,4.0
# From MPEC 2022-Y15
C/2022 R2 (ATLAS),e,52.9039,60.4090,78.3584,417.7954,0.0001154,0.99848674,0.0000,10/25.2369/2022,2000,g 17.0,4.0
# From MPEC 2023-SQ0
C/2022 R3 (Leonard),h,03/05.3766/2023,43.0828,8.2392,72.8739,1.000945,5.129100,2000,12.0,4.0
# From MPEC 2022-X67
P/2022 R4 (PANSTARRS),e,21.0213,176.6254,197.4489,3.836492,0.1311604,0.49010843,60.0234,10/11.0/2023,2000,g 16.5,4.0
# From MPEC 2022-WQ9
P/2022 R5 (PANSTARRS),e,15.2946,115.0505,240.5648,3.068750,0.1833419,0.19532921,91.9804,10/11.0/2023,2000,g 16.0,4.0
# From MPEC 2023-T65
C/2022 R6 (PANSTARRS),h,08/25.5444/2025,57.0218,150.7693,319.8570,1.004125,6.567425,2000,5.0,4.0
# From MPEC 2023-HD1
P/2022 S1 (PANSTARRS),e,34.5807,136.0921,262.7780,6.408146,0.0607583,0.50812536,25.3831,10/11.0/2023,2000,g 15.1,4.0
# From MPEC 2022-VC5
C/2022 S3 (PANSTARRS),h,01/21.6908/2023,78.5460,157.3203,267.9646,1.000394,0.838348,2000,17.0,4.0
# From MPEC 2023-T65
C/2022 S4 (Lemmon),e,101.2214,220.1748,268.4999,2018,0.0000109,0.99863125,0.0000,07/18.5288/2024,2000,g  8.0,4.0
# From MPEC 2023-HD1
C/2022 S5 (PANSTARRS),e,136.5331,214.8587,232.7920,20.43169,0.0106720,0.89334805,3.3884,10/11.0/2023,2000,g 16.3,4.0
# From MPEC 2023-M14
C/2022 T1 (Lemmon),e,22.5435,236.9180,324.3164,10083,0.0000010,0.99965836,0.0000,02/17.5141/2024,2000,g 12.0,4.0
# From MPEC 2023-T65
C/2022 U1 (Leonard),e,128.1477,72.5217,78.5590,10438,0.0000009,0.99959742,0.0000,03/25.7269/2024,2000,g  8.5,4.0
# From MPEC 2023-M14
C/2022 U2 (ATLAS),e,48.2464,304.4687,147.9178,96.28226,0.0010432,0.98620682,0.0000,01/14.2297/2023,2000,g 14.6,4.0
# From MPEC 2023-T65
C/2022 U3 (Bok),h,07/27.9043/2024,33.6324,272.7930,189.0231,1.003360,4.827355,2000,7.5,4.0
# From MPEC 2023-SQ0
C/2022 U4 (Bok),e,52.0351,132.9240,89.0076,3193,0.0000055,0.99909218,0.0000,08/03.6699/2023,2000,g 13.1,4.0
# From MPEC 2023-O39
C/2022 V2 (Lemmon),e,98.9054,332.8708,168.9491,36.85083,0.0044059,0.94400200,359.9034,10/11.0/2023,2000,g 12.0,4.0
# From MPEC 2023-CD7
P/2022 W1 (Rankin),e,13.4659,38.8151,17.8201,6.968499,0.0535791,0.51663080,20.9027,10/11.0/2023,2000,g 12.5,4.0
# From MPEC 2023-M14
C/2022 W2 (ATLAS),e,63.5280,320.4516,123.2651,340.0081,0.0001572,0.99081528,0.0000,03/08.7179/2023,2000,g 13.3,4.0
# From MPEC 2023-SQ0
C/2022 W3 (Leonard),e,103.5581,132.2692,116.5244,281.3141,0.0002089,0.99503138,0.0000,06/22.7783/2023,2000,g 14.3,4.0
# From MPEC 2023-M14
C/2022 Y1 (Hogan),e,18.8562,285.9081,174.7617,12.56726,0.0221230,0.76463602,7.0284,10/11.0/2023,2000,g  9.0,4.0
# From MPEC 2023-M14
C/2022 Y2 (Lemmon),e,165.9065,216.3506,105.5826,19.73778,0.0112397,0.87105001,2.2733,10/11.0/2023,2000,g 15.6,4.0
# From MPEC 2023-KD6
C/2023 A1 (Leonard),e,94.7401,318.3062,159.2481,226.9539,0.0002883,0.99191593,0.0000,03/18.7209/2023,2000,g 14.5,4.0
# From MPEC 2023-J95
C/2023 A2 (SWAN),e,94.7101,94.4740,142.5622,458.4153,0.0001004,0.99793371,0.0000,01/20.3753/2023,2000,g 13.5,4.0
# From MPEC 2023-R20
C/2023 A3 (Tsuchinshan-ATLAS),h,09/27.7271/2024,139.1184,21.5572,308.4845,1.000145,0.391457,2000,5.0,4.0
# From MPEC 2023-KD6
P/2023 B1 (PANSTARRS),e,14.5881,78.5727,81.3276,7.053575,0.0526126,0.12941161,8.7267,10/11.0/2023,2000,g  5.5,4.0
# From MPEC 2023-O39
C/2023 B2 (ATLAS),e,40.7718,218.1211,317.3907,598.6257,0.0000673,0.99708838,0.0000,03/10.4864/2023,2000,g 14.5,4.0
# From MPEC 2023-F81
P/2023 B3 (PANSTARRS),e,9.1616,154.0060,240.0295,4.545562,0.1017004,0.12322247,115.0540,10/11.0/2023,2000,g 10.5,4.0
# From MPEC 2023-OA6
C/2023 C2 (ATLAS),e,48.3162,301.0182,357.4565,3289,0.0000052,0.99928005,0.0000,11/16.8242/2024,2000,g  7.0,4.0
# From MPEC 2023-T65
C/2023 E1 (ATLAS),e,38.3135,164.5738,105.8997,19.34509,0.0115837,0.94692945,1.1803,10/11.0/2023,2000,g 15.5,4.0
# From MPEC 2023-N01
C/2023 F1 (PANSTARRS),e,131.7525,25.2479,216.6532,258.8150,0.0002367,0.99340018,0.0000,06/28.3483/2023,2000,g 16.0,4.0
# From MPEC 2023-T65
C/2023 F3 (ATLAS),h,02/02.8400/2025,145.9565,109.4453,265.5451,1.004265,5.189964,2000,6.0,4.0
# From MPEC 2023-M14
C/2023 H1 (PANSTARRS),e,21.7774,292.6439,333.8440,1577,0.0000157,0.99718342,0.0000,11/28.4140/2024,2000,g 12.6,4.0
# From MPEC 2023-T65
C/2023 H2 (Lemmon),e,113.7532,217.0438,150.6492,246.0339,0.0002554,0.99636475,0.0000,10/29.1876/2023,2000,g 14.0,4.0
# From MPEC 2023-R20
C/2023 H3 (PANSTARRS),e,2.4895,55.1002,193.3368,13.63303,0.0195801,0.61617612,357.4330,10/11.0/2023,2000,g 10.0,4.0
# From MPEC 2023-SQ0
A/2023 H4,e,76.6186,230.8138,64.8972,140.3533,0.0005927,0.98490025,0.0000,08/08.8026/2023,2000,g 18.0,22.0
# From MPEC 2023-N01
C/2023 H5 (Lemmon),h,06/30.1448/2025,97.8790,159.4815,60.0772,1.000432,4.313039,2000,7.0,4.0
# From MPEC 2023-SQ0
C/2023 K1 (ATLAS),e,137.9987,223.7066,337.4718,728.1750,0.0000502,0.99719914,0.0000,09/07.7468/2023,2000,g 13.0,4.0
# From MPEC 2023-N01
P/2023 M1 (PANSTARRS),e,12.2883,216.8637,79.6856,6.850094,0.0549743,0.58744409,356.4603,10/11.0/2023,2000,g 13.5,4.0
# From MPEC 2023-T65
P/2023 M2 (PANSTARRS),e,19.7265,83.2728,242.9663,5.563238,0.0751126,0.36935020,5.8568,10/11.0/2023,2000,g 12.5,4.0
# From MPEC 2023-T65
P/2023 M4 (ATLAS),e,7.5927,296.2965,320.6844,5.452657,0.0774091,0.27932313,42.1080,10/11.0/2023,2000,g  7.5,4.0
# From MPEC 2023-SQ0
C/2023 P1 (Nishimura),e,132.4774,66.8341,116.2989,57.29648,0.0022725,0.99607042,0.0000,09/17.6417/2023,2000,g  9.7,4.0
# From MPEC 2023-T65
C/2023 Q1 (PANSTARRS),h,12/01.3470/2024,36.6799,7.1607,84.4515,1.004392,2.574359,2000,10.0,4.0
# From MPEC 2023-SQ0
C/2023 R1 (PANSTARRS),e,149.3116,62.5416,144.3847,2434,0.0000082,0.99853411,0.0000,04/15.1989/2026,2000,g 10.8,4.0
# From MPEC 2023-T65
C/2023 R2 (PANSTARRS),h,08/11.9798/2024,30.7761,189.0370,337.1232,1.001357,0.905716,2000,10.5,4.0
# From MPEC 2023-TG1
A/2023 R3,e,12.0868,347.3561,86.8903,694.8683,0.0000538,0.99804634,0.0000,12/18.1844/2023,2000,g 20.0,2.0
# From MPEC 2023-T65
P/2023 S1,e,9.1545,317.7679,179.7682,3.862502,0.1298378,0.32417560,295.0669,10/11.0/2023,2000,g 11.5,4.0
# From MPEC 2023-T65
C/2023 S2 (ATLAS),h,10/15.1326/2023,20.6034,230.1722,77.3673,1.033814,1.080539,2000,15.0,4.0
# From  98, 1083
1P/Halley,e,62.1835,59.5902,112.2800,17.87149,0.0130456,0.96647773,179.3188,10/11.0/2023,2000,g  4.0,6.0
# From MPEC 2023-T65
2P/Encke,e,11.3367,334.0195,187.2875,2.218632,0.2982471,0.84693436,356.5618,10/11.0/2023,2000,g 11.5,6.0
# From  76, 1135
3D/Biela,e,7.8867,276.1814,192.2778,3.539784,0.1479923,0.76731490,267.6081,10/11.0/2023,2000,g 11.0,6.0
# From  76, 1135
3D-A/Biela,e,7.2155,276.6885,192.1196,3.549269,0.1473994,0.76701002,298.3629,10/11.0/2023,2000,g 11.0,6.0
# From  76, 1135
3D-B/Biela,e,7.8788,276.1960,192.2388,3.540539,0.1479449,0.76761232,267.3602,10/11.0/2023,2000,g 11.0,6.0
# From MPEC 2023-FK0
4P/Faye,e,8.0092,192.9237,207.0743,3.827690,0.1316130,0.57684229,100.2825,10/11.0/2023,2000,g  8.0,6.0
# From  27, 116
5D/Brorsen,e,18.6212,94.9077,20.3062,3.158009,0.1756241,0.83762470,31.0682,10/11.0/2023,2000,g 10.5,6.0
# From MPEC 2022-WD2
6P/d'Arrest,e,19.5071,138.9450,178.0927,3.497284,0.1506981,0.61225362,113.5518,10/11.0/2023,2000,g  7.5,16.0
# From MPEC 2023-A50
7P/Pons-Winnecke,e,22.3888,93.3075,172.5119,3.408098,0.1566520,0.63878368,135.8434,10/11.0/2023,2000,g 10.0,6.0
# From MPEC 2022-HC2
8P/Tuttle,e,54.9453,270.1734,207.4769,5.703296,0.0723628,0.82035581,56.0193,10/11.0/2023,2000,g  8.0,8.0
# From MPEC 2023-SQ0
9P/Tempel,e,10.5633,68.2223,180.3298,3.163203,0.1751917,0.51079568,102.1430,10/11.0/2023,2000,g  5.5,10.0
# From MPEC 2023-HD1
10P/Tempel,e,12.0323,117.8133,195.5301,3.062181,0.1839322,0.53782813,171.2733,10/11.0/2023,2000,g 13.2,4.0
# From MPEC 2023-A50
11P/Tempel-Swift-LINEAR,e,14.4331,238.8661,168.0111,3.283734,0.1656350,0.57757946,173.6006,10/11.0/2023,2000,g 17.0,4.0
# From MPEC 2023-T65
12P/Pons-Brooks,e,74.1913,255.8566,198.9883,17.18816,0.0138312,0.95457110,357.3288,10/11.0/2023,2000,g  5.0,6.0
# From MPEC 2023-R20
13P/Olbers,e,44.6448,85.8674,64.3956,16.91034,0.0141734,0.93049913,356.2731,10/11.0/2023,2000,g  5.0,6.0
# From MPEC 2021-F20
14P/Wolf,e,27.9215,202.0809,159.1069,4.257395,0.1121988,0.35714099,239.5727,10/11.0/2023,2000,g  5.5,12.0
# From MPEC 2022-ED3
15P/Finlay,e,6.7955,13.7308,347.8709,3.509194,0.1499316,0.71684918,122.8683,10/11.0/2023,2000,g 12.0,4.0
# From MPEC 2022-X67
